SL-14 R/B               
1 21423U 91042B   26012.77789652  .00000382  00000+0  45333-4 0  9994
2 21423  82.4930 272.6215 0018501  66.7924 293.5236 14.81772924844791
ERS-1                   
1 21574U 91050A   26012.80970336  .00000303  00000+0  11175-3 0  9994
2 21574  98.7899  29.6410 0032126  10.0143 350.1677 14.39394659807698
ARIANE 40 R/B           
1 21610U 91050F   26012.71605560  .00000281  00000+0  96626-4 0  9999
2 21610  98.2121  67.0222 0002207 227.6510 132.4494 14.42843085810924
INTERCOSMOS 25          
1 21819U 91086A   26012.59614344  .00001465  00000+0  29089-3 0  9998
2 21819  82.6085 343.9104 1485966 237.8401 107.0043 12.11850394489897
SL-8 R/B                
1 21876U 92008B   26012.87502990  .00000076  00000+0  63180-4 0  9998
2 21876  82.9288 309.2905 0033470 291.7461 129.0206 13.75966016701741
SL-8 R/B                
1 21938U 92020B   26012.53603427  .00000172  00000+0  16258-3 0  9991
2 21938  82.9292 195.4476 0030244  94.4867 320.1869 13.75537081693416
USA 81                  
1 21949U 92023A   26012.84202242  .00000209  00000+0  69874-4 0  9994
2 21949  85.0099 163.6395 0001590 117.3562 242.7793 14.32341672 86798
COSMOS 2219             
1 22219U 92076A   26012.70829093  .00000041  00000+0  46304-4 0  9994
2 22219  71.0617 135.0971 0020576 284.3390  75.5448 14.14081287710462
SL-16 R/B               
1 22220U 92076B   26012.59147384  .00000255  00000+0  15121-3 0  9998
2 22220  71.0015 306.5435 0013097 190.9717 341.7604 14.16848482713882
COSMOS 2221             
1 22236U 92080A   26012.85667350  .00001869  00000+0  16441-3 0  9997
2 22236  82.5056 332.5386 0015388  26.8442 333.3572 14.95921579772446
SL-16 R/B               
1 22285U 92093B   26012.69792112  .00000239  00000+0  14680-3 0  9995
2 22285  71.0219 121.8100 0003545   1.5608 358.5525 14.15435600705230
COSMOS 2228             
1 22286U 92094A   26012.77579387  .00002384  00000+0  20477-3 0  9997
2 22286  82.5190 290.8389 0019231 126.3697 233.9304 14.96904490767691
