CCSDS_OMM_VERS = 2.0
CREATION_DATE  = 
ORIGINATOR     = 

OBJECT_NAME    = SL-14 R/B
OBJECT_ID      = 1991-042B
CENTER_NAME    = EARTH
REF_FRAME      = TEME
TIME_SYSTEM    = UTC
MEAN_ELEMENT_THEORY = SGP/SGP4

EPOCH          = 2026-01-12T18:40:10.259328
MEAN_MOTION    = 14.81772924
ECCENTRICITY   = .0018501
INCLINATION    = 82.4930
RA_OF_ASC_NODE = 272.6215
ARG_OF_PERICENTER = 66.7924
MEAN_ANOMALY   = 293.5236

EPHEMERIS_TYPE = 0
CLASSIFICATION_TYPE = U
NORAD_CAT_ID   = 21423
ELEMENT_SET_NO = 999
REV_AT_EPOCH   = 84479
BSTAR          = .45333E-4
MEAN_MOTION_DOT = .382E-5
MEAN_MOTION_DDOT = 0

CCSDS_OMM_VERS = 2.0
CREATION_DATE  = 
ORIGINATOR     = 

OBJECT_NAME    = ERS-1
OBJECT_ID      = 1991-050A
CENTER_NAME    = EARTH
REF_FRAME      = TEME
TIME_SYSTEM    = UTC
MEAN_ELEMENT_THEORY = SGP/SGP4

EPOCH          = 2026-01-12T19:25:58.370304
MEAN_MOTION    = 14.39394659
ECCENTRICITY   = .0032126
INCLINATION    = 98.7899
RA_OF_ASC_NODE = 29.6410
ARG_OF_PERICENTER = 10.0143
MEAN_ANOMALY   = 350.1677

EPHEMERIS_TYPE = 0
CLASSIFICATION_TYPE = U
NORAD_CAT_ID   = 21574
ELEMENT_SET_NO = 999
REV_AT_EPOCH   = 80769
BSTAR          = .11175E-3
MEAN_MOTION_DOT = .303E-5
MEAN_MOTION_DDOT = 0

CCSDS_OMM_VERS = 2.0
CREATION_DATE  = 
ORIGINATOR     = 

OBJECT_NAME    = ARIANE 40 R/B
OBJECT_ID      = 1991-050F
CENTER_NAME    = EARTH
REF_FRAME      = TEME
TIME_SYSTEM    = UTC
MEAN_ELEMENT_THEORY = SGP/SGP4

EPOCH          = 2026-01-12T17:11:07.203840
MEAN_MOTION    = 14.42843085
ECCENTRICITY   = .0002207
INCLINATION    = 98.2121
RA_OF_ASC_NODE = 67.0222
ARG_OF_PERICENTER = 227.6510
MEAN_ANOMALY   = 132.4494

EPHEMERIS_TYPE = 0
CLASSIFICATION_TYPE = U
NORAD_CAT_ID   = 21610
ELEMENT_SET_NO = 999
REV_AT_EPOCH   = 81092
BSTAR          = .96626E-4
MEAN_MOTION_DOT = .281E-5
MEAN_MOTION_DDOT = 0

CCSDS_OMM_VERS = 2.0
CREATION_DATE  = 
ORIGINATOR     = 

OBJECT_NAME    = INTERCOSMOS 25
OBJECT_ID      = 1991-086A
CENTER_NAME    = EARTH
REF_FRAME      = TEME
TIME_SYSTEM    = UTC
MEAN_ELEMENT_THEORY = SGP/SGP4

EPOCH          = 2026-01-12T14:18:26.793216
MEAN_MOTION    = 12.11850394
ECCENTRICITY   = .1485966
INCLINATION    = 82.6085
RA_OF_ASC_NODE = 343.9104
ARG_OF_PERICENTER = 237.8401
MEAN_ANOMALY   = 107.0043

EPHEMERIS_TYPE = 0
CLASSIFICATION_TYPE = U
NORAD_CAT_ID   = 21819
ELEMENT_SET_NO = 999
REV_AT_EPOCH   = 48989
BSTAR          = .29089E-3
MEAN_MOTION_DOT = .1465E-4
MEAN_MOTION_DDOT = 0

CCSDS_OMM_VERS = 2.0
CREATION_DATE  = 
ORIGINATOR     = 

OBJECT_NAME    = SL-8 R/B
OBJECT_ID      = 1992-008B
CENTER_NAME    = EARTH
REF_FRAME      = TEME
TIME_SYSTEM    = UTC
MEAN_ELEMENT_THEORY = SGP/SGP4

EPOCH          = 2026-01-12T21:00:02.583360
MEAN_MOTION    = 13.75966016
ECCENTRICITY   = .003347
INCLINATION    = 82.9288
RA_OF_ASC_NODE = 309.2905
ARG_OF_PERICENTER = 291.7461
MEAN_ANOMALY   = 129.0206

EPHEMERIS_TYPE = 0
CLASSIFICATION_TYPE = U
NORAD_CAT_ID   = 21876
ELEMENT_SET_NO = 999
REV_AT_EPOCH   = 70174
BSTAR          = .6318E-4
MEAN_MOTION_DOT = .76E-6
MEAN_MOTION_DDOT = 0

CCSDS_OMM_VERS = 2.0
CREATION_DATE  = 
ORIGINATOR     = 

OBJECT_NAME    = SL-8 R/B
OBJECT_ID      = 1992-020B
CENTER_NAME    = EARTH
REF_FRAME      = TEME
TIME_SYSTEM    = UTC
MEAN_ELEMENT_THEORY = SGP/SGP4

EPOCH          = 2026-01-12T12:51:53.360928
MEAN_MOTION    = 13.75537081
ECCENTRICITY   = .0030244
INCLINATION    = 82.9292
RA_OF_ASC_NODE = 195.4476
ARG_OF_PERICENTER = 94.4867
MEAN_ANOMALY   = 320.1869

EPHEMERIS_TYPE = 0
CLASSIFICATION_TYPE = U
NORAD_CAT_ID   = 21938
ELEMENT_SET_NO = 999
REV_AT_EPOCH   = 69341
BSTAR          = .16258E-3
MEAN_MOTION_DOT = .172E-5
MEAN_MOTION_DDOT = 0

CCSDS_OMM_VERS = 2.0
CREATION_DATE  = 
ORIGINATOR     = 

OBJECT_NAME    = USA 81
OBJECT_ID      = 1992-023A
CENTER_NAME    = EARTH
REF_FRAME      = TEME
TIME_SYSTEM    = UTC
MEAN_ELEMENT_THEORY = SGP/SGP4

EPOCH          = 2026-01-12T20:12:30.737088
MEAN_MOTION    = 14.32341672
ECCENTRICITY   = .000159
INCLINATION    = 85.0099
RA_OF_ASC_NODE = 163.6395
ARG_OF_PERICENTER = 117.3562
MEAN_ANOMALY   = 242.7793

EPHEMERIS_TYPE = 0
CLASSIFICATION_TYPE = U
NORAD_CAT_ID   = 21949
ELEMENT_SET_NO = 999
REV_AT_EPOCH   = 8679
BSTAR          = .69874E-4
MEAN_MOTION_DOT = .209E-5
MEAN_MOTION_DDOT = 0

CCSDS_OMM_VERS = 2.0
CREATION_DATE  = 
ORIGINATOR     = 

OBJECT_NAME    = COSMOS 2219
OBJECT_ID      = 1992-076A
CENTER_NAME    = EARTH
REF_FRAME      = TEME
TIME_SYSTEM    = UTC
MEAN_ELEMENT_THEORY = SGP/SGP4

EPOCH          = 2026-01-12T16:59:56.336352
MEAN_MOTION    = 14.14081287
ECCENTRICITY   = .0020576
INCLINATION    = 71.0617
RA_OF_ASC_NODE = 135.0971
ARG_OF_PERICENTER = 284.3390
MEAN_ANOMALY   = 75.5448

EPHEMERIS_TYPE = 0
CLASSIFICATION_TYPE = U
NORAD_CAT_ID   = 22219
ELEMENT_SET_NO = 999
REV_AT_EPOCH   = 71046
BSTAR          = .46304E-4
MEAN_MOTION_DOT = .41E-6
MEAN_MOTION_DDOT = 0

CCSDS_OMM_VERS = 2.0
CREATION_DATE  = 
ORIGINATOR     = 

OBJECT_NAME    = SL-16 R/B
OBJECT_ID      = 1992-076B
CENTER_NAME    = EARTH
REF_FRAME      = TEME
TIME_SYSTEM    = UTC
MEAN_ELEMENT_THEORY = SGP/SGP4

EPOCH          = 2026-01-12T14:11:43.339776
MEAN_MOTION    = 14.16848482
ECCENTRICITY   = .0013097
INCLINATION    = 71.0015
RA_OF_ASC_NODE = 306.5435
ARG_OF_PERICENTER = 190.9717
MEAN_ANOMALY   = 341.7604

EPHEMERIS_TYPE = 0
CLASSIFICATION_TYPE = U
NORAD_CAT_ID   = 22220
ELEMENT_SET_NO = 999
REV_AT_EPOCH   = 71388
BSTAR          = .15121E-3
MEAN_MOTION_DOT = .255E-5
MEAN_MOTION_DDOT = 0

CCSDS_OMM_VERS = 2.0
CREATION_DATE  = 
ORIGINATOR     = 

OBJECT_NAME    = COSMOS 2221
OBJECT_ID      = 1992-080A
CENTER_NAME    = EARTH
REF_FRAME      = TEME
TIME_SYSTEM    = UTC
MEAN_ELEMENT_THEORY = SGP/SGP4

EPOCH          = 2026-01-12T20:33:36.590400
MEAN_MOTION    = 14.95921579
ECCENTRICITY   = .0015388
INCLINATION    = 82.5056
RA_OF_ASC_NODE = 332.5386
ARG_OF_PERICENTER = 26.8442
MEAN_ANOMALY   = 333.3572

EPHEMERIS_TYPE = 0
CLASSIFICATION_TYPE = U
NORAD_CAT_ID   = 22236
ELEMENT_SET_NO = 999
REV_AT_EPOCH   = 77244
BSTAR          = .16441E-3
MEAN_MOTION_DOT = .1869E-4
MEAN_MOTION_DDOT = 0

CCSDS_OMM_VERS = 2.0
CREATION_DATE  = 
ORIGINATOR     = 

OBJECT_NAME    = SL-16 R/B
OBJECT_ID      = 1992-093B
CENTER_NAME    = EARTH
REF_FRAME      = TEME
TIME_SYSTEM    = UTC
MEAN_ELEMENT_THEORY = SGP/SGP4

EPOCH          = 2026-01-12T16:45:00.384768
MEAN_MOTION    = 14.15435600
ECCENTRICITY   = .0003545
INCLINATION    = 71.0219
RA_OF_ASC_NODE = 121.8100
ARG_OF_PERICENTER = 1.5608
MEAN_ANOMALY   = 358.5525

EPHEMERIS_TYPE = 0
CLASSIFICATION_TYPE = U
NORAD_CAT_ID   = 22285
ELEMENT_SET_NO = 999
REV_AT_EPOCH   = 70523
BSTAR          = .1468E-3
MEAN_MOTION_DOT = .239E-5
MEAN_MOTION_DDOT = 0

CCSDS_OMM_VERS = 2.0
CREATION_DATE  = 
ORIGINATOR     = 

OBJECT_NAME    = COSMOS 2228
OBJECT_ID      = 1992-094A
CENTER_NAME    = EARTH
REF_FRAME      = TEME
TIME_SYSTEM    = UTC
MEAN_ELEMENT_THEORY = SGP/SGP4

EPOCH          = 2026-01-12T18:37:08.590368
MEAN_MOTION    = 14.96904490
ECCENTRICITY   = .0019231
INCLINATION    = 82.5190
RA_OF_ASC_NODE = 290.8389
ARG_OF_PERICENTER = 126.3697
MEAN_ANOMALY   = 233.9304

EPHEMERIS_TYPE = 0
CLASSIFICATION_TYPE = U
NORAD_CAT_ID   = 22286
ELEMENT_SET_NO = 999
REV_AT_EPOCH   = 76769
BSTAR          = .20477E-3
MEAN_MOTION_DOT = .2384E-4
MEAN_MOTION_DDOT = 0

